1 29155U 06018A   10016.42573189 -.00000081  00000-0  10000-3 0  9291
2 29155 000.3997 091.7943 0002936 160.7047 271.1095 01.00272080 13391